SHIJIAN-6 05A (SJ-6 05A)
1 49961U 21122A   26068.88345882  .00003299  00000+0  27617-3 0  9993
2 49961  97.4012  42.3306 0003221  76.6317 283.5266 14.99085264233873
STARLINK-34355          
1 64306U 25123R   26068.75469850  .00016574  00000+0  13927-2 0  9994
2 64306  70.0033 194.4730 0002859 265.6748  94.4085 14.98355140 41627
